ONEWEB-0128             
1 47274U 20100S   24161.97004233 -.00000261  00000+0 -76030-3 0  9998
2 47274  87.8942 137.4628 0002383  85.2111 274.9290 13.12438422168041
ONEWEB-0129             
1 47275U 20100T   24161.94900546 -.00000278  00000+0 -80865-3 0  9997
2 47275  87.8933 137.4344 0002211  38.1847 321.9438 13.12478054167973
ONEWEB-0130             
1 47276U 20100U   24161.90046946 -.00000060  00000+0 -20181-3 0  9993
2 47276  87.8932 137.4517 0002181  81.8312 278.3064 13.12576947167939
ONEWEB-0131             
1 47277U 20100V   24161.89721331 -.00000153  00000+0 -45976-3 0  9992
2 47277  87.8936 137.4668 0002257  85.4336 274.7050 13.12582050167972
ONEWEB-0132             
1 47278U 20100W   24161.92634630  .00000403  00000+0  10824-2 0  9991
2 47278  87.8935 137.4634 0002140  92.2002 267.9372 13.12523335167873
ONEWEB-0133             
1 47279U 20100X   24161.94253125  .00000007  00000+0 -15813-4 0  9996
2 47279  87.8929 137.4592 0002209  86.8993 273.2389 13.12488621168039
ONEWEB-0134             
1 47280U 20100Y   24161.91178865  .00000283  00000+0  75121-3 0  9994
2 47280  87.8929 137.4530 0002314  81.0386 279.1004 13.12550937168009
ONEWEB-0135             
1 47281U 20100Z   24162.49225230  .00000874  00000+0  23995-2 0  9995
2 47281  87.8938 137.3538 0002629  81.1821 278.9605 13.12317896168101
